{
    "links": {
        "self": "http://www.neowsapp.com/rest/v1/neo/54017276?api_key=iIulBulltgU6a56xZRHN4H3l9WmuAYTsLGpBGhQ2"
    },
    "id": "54017276",
    "neo_reference_id": "54017276",
    "name": "(2020 KA6)",
    "designation": "2020 KA6",
    "nasa_jpl_url": "http://ssd.jpl.nasa.gov/sbdb.cgi?sstr=54017276",
    "absolute_magnitude_h": 26.662,
    "estimated_diameter": {
        "kilometers": {
            "estimated_diameter_min": 0.0123638856,
            "estimated_diameter_max": 0.0276464886
        },
        "meters": {
            "estimated_diameter_min": 12.3638855606,
            "estimated_diameter_max": 27.6464885796
        },
        "miles": {
            "estimated_diameter_min": 0.0076825599,
            "estimated_diameter_max": 0.0171787263
        },
        "feet": {
            "estimated_diameter_min": 40.5639303027,
            "estimated_diameter_max": 90.7037055915
        }
    },
    "is_potentially_hazardous_asteroid": false,
    "close_approach_data": [
        {
            "close_approach_date": "1969-09-09",
            "close_approach_date_full": "1969-Sep-09 10:07",
            "epoch_date_close_approach": -9813180000,
            "relative_velocity": {
                "kilometers_per_second": "17.2328931662",
                "kilometers_per_hour": "62038.4153981522",
                "miles_per_hour": "38548.2587233685"
            },
            "miss_distance": {
                "astronomical": "0.2281252875",
                "lunar": "88.7407368375",
                "kilometers": "34127057.103137625",
                "miles": "21205569.968544225"
            },
            "orbiting_body": "Earth"
        },
        {
            "close_approach_date": "2020-06-05",
            "close_approach_date_full": "2020-Jun-05 17:44",
            "epoch_date_close_approach": 1591379040000,
            "relative_velocity": {
                "kilometers_per_second": "11.5459977382",
                "kilometers_per_hour": "41565.5918574667",
                "miles_per_hour": "25827.2423405465"
            },
            "miss_distance": {
                "astronomical": "0.0298353702",
                "lunar": "11.6059590078",
                "kilometers": "4463307.832581474",
                "miles": "2773370.8842493812"
            },
            "orbiting_body": "Earth"
        },
        {
            "close_approach_date": "2025-11-13",
            "close_approach_date_full": "2025-Nov-13 04:58",
            "epoch_date_close_approach": 1763009880000,
            "relative_velocity": {
                "kilometers_per_second": "3.3913580172",
                "kilometers_per_hour": "12208.8888618542",
                "miles_per_hour": "7586.1287486338"
            },
            "miss_distance": {
                "astronomical": "1.493965801",
                "lunar": "581.152696589",
                "kilometers": "223494101.68244387",
                "miles": "138872795.168390606"
            },
            "orbiting_body": "Juptr"
        }
    ],
    "orbital_data": {
        "orbit_id": "3",
        "orbit_determination_date": "2020-11-11 05:26:58",
        "first_observation_date": "2020-05-27",
        "last_observation_date": "2020-11-10",
        "data_arc_in_days": 167,
        "observations_used": 24,
        "orbit_uncertainty": "6",
        "minimum_orbit_intersection": ".0171096",
        "jupiter_tisserand_invariant": "3.278",
        "epoch_osculation": "2459000.5",
        "eccentricity": ".5967366923991352",
        "semi_major_axis": "2.36816146322893",
        "inclination": "3.688153756908379",
        "ascending_node_longitude": "64.65957476694744",
        "orbital_period": "1331.114429550014",
        "perihelion_distance": ".9549926245946022",
        "perihelion_argument": "228.4475908225756",
        "aphelion_distance": "3.781330301863258",
        "perihelion_time": "2459035.202502882950",
        "mean_anomaly": "350.614705422369",
        "mean_motion": ".2704500770243313",
        "equinox": "J2000",
        "orbit_class": {
            "orbit_class_type": "APO",
            "orbit_class_description": "Near-Earth asteroid orbits which cross the Earth’s orbit similar to that of 1862 Apollo",
            "orbit_class_range": "a (semi-major axis) > 1.0 AU; q (perihelion) < 1.017 AU"
        }
    },
    "is_sentry_object": false
}